{"fetched_at":"2026-07-14T06:34:46.189Z","source":"https://celestrak.org/NORAD/elements/gp.php?NAME=HAWK&FORMAT=JSON","constellation":"hawkeye-360","records":[{"OBJECT_NAME":"HAWK-A","OBJECT_ID":"2018-099H","EPOCH":"2026-07-13T17:30:03.748320","CLASSIFICATION_TYPE":"U","MEAN_MOTION":15.24952749,"ECCENTRICITY":0.0034548,"INCLINATION":97.3901,"RA_OF_ASC_NODE":246.6217,"ARG_OF_PERICENTER":189.1183,"MEAN_ANOMALY":170.9432,"EPHEMERIS_TYPE":0,"NORAD_CAT_ID":43765,"ELEMENT_SET_NO":999,"REV_AT_EPOCH":41714,"BSTAR":0.00015687,"MEAN_MOTION_DOT":0.000039,"MEAN_MOTION_DDOT":0},{"OBJECT_NAME":"HAWK-B","OBJECT_ID":"2018-099AN","EPOCH":"2026-07-13T17:12:20.628288","CLASSIFICATION_TYPE":"U","MEAN_MOTION":15.23104475,"ECCENTRICITY":0.0031227,"INCLINATION":97.3951,"RA_OF_ASC_NODE":245.9686,"ARG_OF_PERICENTER":207.332,"MEAN_ANOMALY":152.6275,"EPHEMERIS_TYPE":0,"NORAD_CAT_ID":43794,"ELEMENT_SET_NO":999,"REV_AT_EPOCH":41707,"BSTAR":0.00014365,"MEAN_MOTION_DOT":0.0000336,"MEAN_MOTION_DDOT":0},{"OBJECT_NAME":"HAWK-C","OBJECT_ID":"2018-099AT","EPOCH":"2026-07-13T17:03:21.424032","CLASSIFICATION_TYPE":"U","MEAN_MOTION":15.28475603,"ECCENTRICITY":0.0040081,"INCLINATION":97.3879,"RA_OF_ASC_NODE":247.6475,"ARG_OF_PERICENTER":189.0592,"MEAN_ANOMALY":170.9929,"EPHEMERIS_TYPE":0,"NORAD_CAT_ID":43799,"ELEMENT_SET_NO":999,"REV_AT_EPOCH":41796,"BSTAR":0.00017637,"MEAN_MOTION_DOT":0.00004927,"MEAN_MOTION_DDOT":0},{"OBJECT_NAME":"HAWK-2C","OBJECT_ID":"2021-006CT","EPOCH":"2026-07-13T16:29:38.082048","CLASSIFICATION_TYPE":"U","MEAN_MOTION":15.34977257,"ECCENTRICITY":0.0008639,"INCLINATION":97.2268,"RA_OF_ASC_NODE":238.4713,"ARG_OF_PERICENTER":105.1278,"MEAN_ANOMALY":255.0922,"EPHEMERIS_TYPE":0,"NORAD_CAT_ID":47502,"ELEMENT_SET_NO":999,"REV_AT_EPOCH":30356,"BSTAR":0.0001183,"MEAN_MOTION_DOT":0.00003939,"MEAN_MOTION_DDOT":0},{"OBJECT_NAME":"HAWK-2A","OBJECT_ID":"2021-006CW","EPOCH":"2026-07-13T16:32:51.535104","CLASSIFICATION_TYPE":"U","MEAN_MOTION":15.34992045,"ECCENTRICITY":0.0008163,"INCLINATION":97.2309,"RA_OF_ASC_NODE":239.1669,"ARG_OF_PERICENTER":108.4159,"MEAN_ANOMALY":251.7972,"EPHEMERIS_TYPE":0,"NORAD_CAT_ID":47505,"ELEMENT_SET_NO":999,"REV_AT_EPOCH":30356,"BSTAR":0.00011781,"MEAN_MOTION_DOT":0.00003924,"MEAN_MOTION_DDOT":0},{"OBJECT_NAME":"HAWK-2B","OBJECT_ID":"2021-006CZ","EPOCH":"2026-07-13T16:23:42.919296","CLASSIFICATION_TYPE":"U","MEAN_MOTION":15.35122316,"ECCENTRICITY":0.000869,"INCLINATION":97.2178,"RA_OF_ASC_NODE":237.4508,"ARG_OF_PERICENTER":106.7993,"MEAN_ANOMALY":253.4205,"EPHEMERIS_TYPE":0,"NORAD_CAT_ID":47508,"ELEMENT_SET_NO":999,"REV_AT_EPOCH":30356,"BSTAR":0.0001329,"MEAN_MOTION_DOT":0.00004456,"MEAN_MOTION_DDOT":0},{"OBJECT_NAME":"HAWK-3B","OBJECT_ID":"2021-059BE","EPOCH":"2026-07-13T12:12:26.785440","CLASSIFICATION_TYPE":"U","MEAN_MOTION":15.71758213,"ECCENTRICITY":0.00043189,"INCLINATION":97.6631,"RA_OF_ASC_NODE":33.7494,"ARG_OF_PERICENTER":204.4435,"MEAN_ANOMALY":155.6623,"EPHEMERIS_TYPE":0,"NORAD_CAT_ID":48931,"ELEMENT_SET_NO":999,"REV_AT_EPOCH":28198,"BSTAR":0.00022907755,"MEAN_MOTION_DOT":0.00029507,"MEAN_MOTION_DDOT":0},{"OBJECT_NAME":"HAWK-3C","OBJECT_ID":"2021-059BX","EPOCH":"2026-07-13T12:11:59.653248","CLASSIFICATION_TYPE":"U","MEAN_MOTION":15.71762993,"ECCENTRICITY":0.00046618,"INCLINATION":97.6753,"RA_OF_ASC_NODE":39.4797,"ARG_OF_PERICENTER":205.3009,"MEAN_ANOMALY":154.8025,"EPHEMERIS_TYPE":0,"NORAD_CAT_ID":48948,"ELEMENT_SET_NO":999,"REV_AT_EPOCH":28198,"BSTAR":0.00022722046,"MEAN_MOTION_DOT":0.00029274,"MEAN_MOTION_DDOT":0},{"OBJECT_NAME":"HAWK-3A","OBJECT_ID":"2021-059CG","EPOCH":"2026-07-13T12:11:49.937568","CLASSIFICATION_TYPE":"U","MEAN_MOTION":15.71762141,"ECCENTRICITY":0.00044695,"INCLINATION":97.6696,"RA_OF_ASC_NODE":36.6637,"ARG_OF_PERICENTER":207.8356,"MEAN_ANOMALY":152.2667,"EPHEMERIS_TYPE":0,"NORAD_CAT_ID":48957,"ELEMENT_SET_NO":999,"REV_AT_EPOCH":28198,"BSTAR":0.00022247109,"MEAN_MOTION_DOT":0.00028655,"MEAN_MOTION_DDOT":0},{"OBJECT_NAME":"HAWK-5C","OBJECT_ID":"2022-057Y","EPOCH":"2026-07-13T17:44:37.260960","CLASSIFICATION_TYPE":"U","MEAN_MOTION":15.52291148,"ECCENTRICITY":0.0002937,"INCLINATION":97.6607,"RA_OF_ASC_NODE":356.1407,"ARG_OF_PERICENTER":352.8842,"MEAN_ANOMALY":7.2367,"EPHEMERIS_TYPE":0,"NORAD_CAT_ID":52754,"ELEMENT_SET_NO":999,"REV_AT_EPOCH":23046,"BSTAR":0.00018637,"MEAN_MOTION_DOT":0.00011227,"MEAN_MOTION_DDOT":0},{"OBJECT_NAME":"HAWK-5B","OBJECT_ID":"2022-057AA","EPOCH":"2026-07-13T20:50:00.344256","CLASSIFICATION_TYPE":"U","MEAN_MOTION":15.52292068,"ECCENTRICITY":0.0003586,"INCLINATION":97.6622,"RA_OF_ASC_NODE":354.6312,"ARG_OF_PERICENTER":338.0104,"MEAN_ANOMALY":22.0993,"EPHEMERIS_TYPE":0,"NORAD_CAT_ID":52756,"ELEMENT_SET_NO":999,"REV_AT_EPOCH":23048,"BSTAR":0.00018616,"MEAN_MOTION_DOT":0.00011215,"MEAN_MOTION_DDOT":0},{"OBJECT_NAME":"HAWK-5A","OBJECT_ID":"2022-057AB","EPOCH":"2026-07-13T17:44:04.236288","CLASSIFICATION_TYPE":"U","MEAN_MOTION":15.52289665,"ECCENTRICITY":0.0003468,"INCLINATION":97.6616,"RA_OF_ASC_NODE":355.324,"ARG_OF_PERICENTER":344.394,"MEAN_ANOMALY":15.7205,"EPHEMERIS_TYPE":0,"NORAD_CAT_ID":52757,"ELEMENT_SET_NO":999,"REV_AT_EPOCH":23046,"BSTAR":0.00018792,"MEAN_MOTION_DOT":0.00011322,"MEAN_MOTION_DDOT":0},{"OBJECT_NAME":"HAWK-6B","OBJECT_ID":"2023-011A","EPOCH":"2026-07-13T09:52:42.695328","CLASSIFICATION_TYPE":"U","MEAN_MOTION":15.23143561,"ECCENTRICITY":0.00039431,"INCLINATION":40.4967,"RA_OF_ASC_NODE":199.0865,"ARG_OF_PERICENTER":231.0284,"MEAN_ANOMALY":129.0174,"EPHEMERIS_TYPE":0,"NORAD_CAT_ID":55324,"ELEMENT_SET_NO":999,"REV_AT_EPOCH":19184,"BSTAR":0.00011056983,"MEAN_MOTION_DOT":0.00002471,"MEAN_MOTION_DDOT":0},{"OBJECT_NAME":"HAWK-6C","OBJECT_ID":"2023-011C","EPOCH":"2026-07-13T09:51:48.372192","CLASSIFICATION_TYPE":"U","MEAN_MOTION":15.23146024,"ECCENTRICITY":0.00044448,"INCLINATION":40.4959,"RA_OF_ASC_NODE":195.9257,"ARG_OF_PERICENTER":223.1928,"MEAN_ANOMALY":136.8534,"EPHEMERIS_TYPE":0,"NORAD_CAT_ID":55326,"ELEMENT_SET_NO":999,"REV_AT_EPOCH":19185,"BSTAR":0.00011621496,"MEAN_MOTION_DOT":0.00002607,"MEAN_MOTION_DDOT":0},{"OBJECT_NAME":"HAWK-6A","OBJECT_ID":"2023-011D","EPOCH":"2026-07-13T09:51:51.524928","CLASSIFICATION_TYPE":"U","MEAN_MOTION":15.23145096,"ECCENTRICITY":0.00039669,"INCLINATION":40.4967,"RA_OF_ASC_NODE":197.5527,"ARG_OF_PERICENTER":220.6915,"MEAN_ANOMALY":139.3598,"EPHEMERIS_TYPE":0,"NORAD_CAT_ID":55327,"ELEMENT_SET_NO":999,"REV_AT_EPOCH":19185,"BSTAR":0.0001163441,"MEAN_MOTION_DOT":0.0000261,"MEAN_MOTION_DDOT":0},{"OBJECT_NAME":"HAWK-7A","OBJECT_ID":"2023-054P","EPOCH":"2026-07-13T18:32:22.996896","CLASSIFICATION_TYPE":"U","MEAN_MOTION":15.27623338,"ECCENTRICITY":0.0001547,"INCLINATION":97.2669,"RA_OF_ASC_NODE":81.4341,"ARG_OF_PERICENTER":341.7421,"MEAN_ANOMALY":18.3763,"EPHEMERIS_TYPE":0,"NORAD_CAT_ID":56191,"ELEMENT_SET_NO":999,"REV_AT_EPOCH":18108,"BSTAR":0.00012157,"MEAN_MOTION_DOT":0.00003211,"MEAN_MOTION_DDOT":0}]}
