HAWK-A                  
1 43765U 18099H   26194.72921005  .00003900  00000+0  15687-3 0  9991
2 43765  97.3901 246.6217 0034548 189.1183 170.9432 15.24952749417140
HAWK-B                  
1 43794U 18099AN  26194.71690542  .00003360  00000+0  14365-3 0  9993
2 43794  97.3951 245.9686 0031227 207.3320 152.6275 15.23104475417074
HAWK-C                  
1 43799U 18099AT  26194.71066463  .00004927  00000+0  17637-3 0  9992
2 43799  97.3879 247.6475 0040081 189.0592 170.9929 15.28475603417964
HAWK-2C                 
1 47502U 21006CT  26194.68724632  .00003939  00000+0  11830-3 0  9996
2 47502  97.2268 238.4713 0008639 105.1278 255.0922 15.34977257303564
HAWK-2A                 
1 47505U 21006CW  26194.68948536  .00003924  00000+0  11781-3 0  9999
2 47505  97.2309 239.1669 0008163 108.4159 251.7972 15.34992045303567
HAWK-2B                 
1 47508U 21006CZ  26194.68313564  .00004456  00000+0  13290-3 0  9997
2 47508  97.2178 237.4508 0008690 106.7993 253.4205 15.35122316303564
HAWK-3B                 
1 48931U 21059BE  26194.50864335  .00029507  00000+0  22908-3 0  9994
2 48931  97.6631  33.7494 0004318 204.4435 155.6623 15.71758213281983
HAWK-3C                 
1 48948U 21059BX  26194.50832932  .00029274  00000+0  22722-3 0  9995
2 48948  97.6753  39.4797 0004661 205.3009 154.8025 15.71762993281980
HAWK-3A                 
1 48957U 21059CG  26194.50821687  .00028655  00000+0  22247-3 0  9994
2 48957  97.6696  36.6637 0004469 207.8356 152.2667 15.71762141281985
HAWK-5C                 
1 52754U 22057Y   26194.73932015  .00011227  00000+0  18637-3 0  9991
2 52754  97.6607 356.1407 0002937 352.8842   7.2367 15.52291148230467
HAWK-5B                 
1 52756U 22057AA  26194.86805954  .00011215  00000+0  18616-3 0  9992
2 52756  97.6622 354.6312 0003586 338.0104  22.0993 15.52292068230486
HAWK-5A                 
1 52757U 22057AB  26194.73893792  .00011322  00000+0  18792-3 0  9990
2 52757  97.6616 355.3240 0003468 344.3940  15.7205 15.52289665230467
HAWK-6B                 
1 55324U 23011A   26194.41160527  .00002471  00000+0  11057-3 0  9994
2 55324  40.4967 199.0865 0003943 231.0284 129.0174 15.23143561191846
HAWK-6C                 
1 55326U 23011C   26194.41097653  .00002607  00000+0  11621-3 0  9993
2 55326  40.4959 195.9257 0004444 223.1928 136.8534 15.23146024191857
HAWK-6A                 
1 55327U 23011D   26194.41101302  .00002610  00000+0  11634-3 0  9999
2 55327  40.4967 197.5527 0003966 220.6915 139.3598 15.23145096191857
HAWK-7A                 
1 56191U 23054P   26194.77248839  .00003211  00000+0  12157-3 0  9991
2 56191  97.2669  81.4341 0001547 341.7421  18.3763 15.27623338181089
